NORAD_CAT_ID,OBJECT_NAME,OBJECT_TYPE,EPOCH,MEAN_MOTION,ECCENTRICITY,INCLINATION,RA_OF_ASC_NODE,ARG_OF_PERICENTER,MEAN_ANOMALY,BSTAR,MEAN_MOTION_DOT,MEAN_MOTION_DDOT,TLE_LINE0,TLE_LINE1,TLE_LINE2,SEMIMAJOR_AXIS,PERIOD,APOGEE,PERIGEE,DECAYED
49144.0,STARLINK-3100,PAYLOAD,2021-09-20 14:00:01,15.87958989,0.0040684,70.0004,108.9932,159.3074,93.0902,-0.0042692,-0.01238276,0.00043124,0 STARLINK-3100,1 49144U 21082Q   21263.58334491 -.01238276  43124-3 -42692-2 0  9999,2 49144  70.0004 108.9932 0040684 159.3074  93.0902 15.87958989  1113,6686.143,90.682,335.21,280.806,0.0
49144.0,STARLINK-3100,PAYLOAD,2021-09-20 20:00:01,15.87348072,0.0037732,70.0002,108.2718,159.5064,81.3383,-0.0043985,-0.0122485,0.00042022,0 STARLINK-3100,1 49144U 21082Q   21263.83334491 -.01224850  42022-3 -43985-2 0  9992,2 49144  70.0002 108.2718 0037732 159.5064  81.3383 15.87348072  1150,6687.858,90.717,334.958,284.4890000000001,0.0
49144.0,STARLINK-3100,PAYLOAD,2021-09-20 22:00:00,15.87168403,0.0036789,70.0001,108.0314,159.9857,196.8786,-0.0046111999999999,-0.01268354,0.00044744,0 STARLINK-3100,1 49144U 21082Q   21263.91667824 -.01268354  44744-3 -46112-2 0  9995,2 49144  70.0001 108.0314 0036789 159.9857 196.8786 15.87168403  1386,6688.363,90.728,334.834,285.622,0.0
49144.0,STARLINK-3100,PAYLOAD,2021-09-21 04:00:00,15.86566442,0.003508,69.9998,107.3106,160.5513,184.033,-0.0047869,-0.01271091,0.00044671,0 STARLINK-3100,1 49144U 21082Q   21264.16667824 -.01271091  44671-3 -47869-2 0  9994,2 49144  69.9998 107.3106 0035080 160.5513 184.0330 15.86566442  1208,6690.055,90.762,335.3880000000001,288.451,0.0
49144.0,STARLINK-3100,PAYLOAD,2021-09-21 12:00:00,15.85736425,0.0031024,70.0001,106.3507,161.4184,285.9579,-0.0048372,-0.01219755,0.00041079,0 STARLINK-3100,1 49144U 21082Q   21264.50001157 -.01219755  41079-3 -48372-2 0  9991,2 49144  70.0001 106.3507 0031024 161.4184 285.9579 15.85736425  1258,6692.389,90.81,335.016,293.491,0.0
49144.0,STARLINK-3100,PAYLOAD,2021-09-21 14:00:01,15.85531673,0.0030376,70.0003,106.1108,161.5322,41.4556,-0.0048509999999999,-0.01209163,0.00040346,0 STARLINK-3100,1 49144U 21082Q   21264.58335648 -.01209163  40346-3 -48510-2 0  9996,2 49144  70.0003 106.1108 0030376 161.5322  41.4556 15.85531673  1493,6692.965,90.821,335.161,294.5,0.0
49144.0,STARLINK-3100,PAYLOAD,2021-09-21 22:00:00,15.84753499,0.0027206,70.0001,105.1524,163.1688,141.3212,-0.0053166,-0.01266185,0.0004362,0 STARLINK-3100,1 49144U 21082Q   21264.91667824 -.01266185  43620-3 -53166-2 0  9995,2 49144  70.0001 105.1524 0027206 163.1688 141.3212 15.84753499  1325,6695.156,90.866,335.236,298.806,0.0
49144.0,STARLINK-3100,PAYLOAD,2021-09-22 06:00:02,15.83941028,0.002457,69.9998,104.1949,165.5601,239.6109,-0.0054877,-0.01117005,0.0,0 STARLINK-3100,1 49144U 21082Q   21265.25002315 -.01117005  00000-0 -54877-2 0  9999,2 49144  69.9998 104.1949 0024570 165.5601 239.6109 15.83941028  1376,6697.445,90.912,335.766,302.855,0.0
49144.0,STARLINK-3100,PAYLOAD,2021-09-22 14:00:01,15.83113259,0.0020744,70.0002,103.2387,167.5064,337.2534,-0.0055123,-0.01074148,0.0,0 STARLINK-3100,1 49144U 21082Q   21265.58334491 -.01074148  00000-0 -55123-2 0  9993,2 49144  70.0002 103.2387 0020744 167.5064 337.2534 15.83113259  1650,6699.78,90.96,335.543,307.747,0.0
49144.0,STARLINK-3100,PAYLOAD,2021-09-22 20:00:01,15.82511885,0.0018402,70.0,102.5223,170.5195,318.3422,-0.0057197,-0.0107772,0.0,0 STARLINK-3100,1 49144U 21082Q   21265.83334491 -.01077720  00000-0 -57197-2 0  9993,2 49144  70.0000 102.5223 0018402 170.5195 318.3422 15.82511885  1692,6701.477,90.995,335.6740000000001,311.01,0.0
49144.0,STARLINK-3100,PAYLOAD,2021-09-23 06:00:02,15.81538783,0.0015552,69.9999,101.3295,177.4424,163.77200000000005,-0.0063486,-0.01130033,0.0,0 STARLINK-3100,1 49144U 21082Q   21266.25002315 -.01130033  00000-0 -63486-2 0  9992,2 49144  69.9999 101.3295 0015552 177.4424 163.7720 15.81538783  1537,6704.225,91.051,336.517,315.664,0.0
49144.0,STARLINK-3100,PAYLOAD,2021-09-23 14:00:01,15.80713726,0.0012079,70.0003,100.3768,185.9514,251.9569,-0.006391,-0.01093663,0.0,0 STARLINK-3100,1 49144U 21082Q   21266.58334491 -.01093663  00000-0 -63910-2 0  9990,2 49144  70.0003 100.3768 0012079 185.9514 251.9569 15.80713726  1818,6706.558000000001,91.098,336.524,320.322,0.0
49144.0,STARLINK-3100,PAYLOAD,2021-09-23 22:00:01,15.79897662,0.0009995,70.0001,99.4251,196.8944,336.8713,-0.0065084,-0.01072442,0.0,0 STARLINK-3100,1 49144U 21082Q   21266.91668981 -.01072442  00000-0 -65084-2 0  9997,2 49144  70.0001  99.4251 0009995 196.8944 336.8713 15.79897662  1861,6708.8669999999975,91.145,337.4380000000001,324.027,0.0
49144.0,STARLINK-3100,PAYLOAD,2021-09-24 04:00:00,15.79297338,0.0009138,69.9997,98.712,208.1605,306.7465,-0.0067334,-0.01077661,0.0,0 STARLINK-3100,1 49144U 21082Q   21267.16667824 -.01077661  00000-0 -67334-2 0  9998,2 49144  69.9997  98.7120 0009138 208.1605 306.7465 15.79297338  1672,6710.566999999999,91.18,338.564,326.3,0.0
49144.0,STARLINK-3100,PAYLOAD,2021-09-24 14:00:01,15.78310738,0.0008335,70.0002,97.5251,226.2427,136.1312,-0.007268,-0.01127178,0.0,0 STARLINK-3100,1 49144U 21082Q   21267.58334491 -.01127178  00000-0 -72680-2 0  9994,2 49144  70.0002  97.5251 0008335 226.2427 136.1312 15.78310738  1973,6713.364000000001,91.237,340.824,329.6330000000001,0.0
49144.0,STARLINK-3100,PAYLOAD,2021-09-24 22:00:00,15.77499053,0.0007942,70.0,96.5767,230.5807,224.6892,-0.007451,-0.01115021,0.0,0 STARLINK-3100,1 49144U 21082Q   21267.91667824 -.01115021  00000-0 -74510-2 0  9998,2 49144  70.0000  96.5767 0007942 230.5807 224.6892 15.77499053  1798,6715.666,91.284,342.865,332.1980000000001,0.0
49144.0,STARLINK-3100,PAYLOAD,2021-09-25 06:00:02,15.76696741,0.0008546,69.9998,95.6294,228.9633,318.3005,-0.0077491,-0.01118955,0.0,0 STARLINK-3100,1 49144U 21082Q   21268.25002315 -.01118955  00000-0 -77491-2 0  9994,2 49144  69.9998  95.6294 0008546 228.9633 318.3005 15.76696741  2076,6717.944,91.33,345.55,334.0680000000001,0.0
49144.0,STARLINK-3100,PAYLOAD,2021-09-25 14:00:01,15.758924800000004,0.0007881,70.0003,94.6835,228.1444,50.0171,-0.0080241,-0.01117545,0.0,0 STARLINK-3100,1 49144U 21082Q   21268.58334491 -.01117545  00000-0 -80241-2 0  9994,2 49144  70.0003  94.6835 0007881 228.1444  50.0171 15.75892480  1901,6720.23,91.377,347.391,336.7990000000001,0.0
49144.0,STARLINK-3100,PAYLOAD,2021-09-26 00:00:00,15.74883525,0.0008638,69.9999,93.5024,232.708,247.8029,-0.0083401,-0.01112464,0.0,0 STARLINK-3100,1 49144U 21082Q   21269.00001157 -.01112464  00000-0 -83401-2 0  9998,2 49144  69.9999  93.5024 0008638 232.7080 247.8029 15.74883525  2197,6723.1,91.435,350.772,339.157,0.0
49144.0,STARLINK-3100,PAYLOAD,2021-09-26 06:00:00,15.74286045,0.0004291,70.0,92.7947,270.0005,187.1936,-0.0086582999999999,-0.01120534,0.0,0 STARLINK-3100,1 49144U 21082Q   21269.25001157 -.01120534  00000-0 -86583-2 0  9996,2 49144  70.0000  92.7947 0004291 270.0005 187.1936 15.74286045  2008,6724.801,91.47,349.551,343.78,0.0
49144.0,STARLINK-3100,PAYLOAD,2021-09-26 14:00:01,15.7347619,0.000353,70.0003,91.852,281.7164,263.54900000000004,-0.0088837999999999,-0.01110712,0.0,0 STARLINK-3100,1 49144U 21082Q   21269.58334491 -.01110712  00000-0 -88838-2 0  9994,2 49144  70.0003  91.8520 0003530 281.7164 263.5490 15.73476190  2294,6727.108,91.517,351.348,346.598,0.0
49144.0,STARLINK-3100,PAYLOAD,2021-09-26 22:00:01,15.72671852,0.000348,70.0001,90.9104,275.5572,356.8784,-0.0092008,-0.01111165,0.0,0 STARLINK-3100,1 49144U 21082Q   21269.91668981 -.01111165  00000-0 -92008-2 0  9992,2 49144  70.0001  90.9104 0003480 275.5572 356.8784 15.72671852  2347,6729.401,91.564,353.608,348.925,0.0
49144.0,STARLINK-3100,PAYLOAD,2021-09-27 06:00:02,15.71867058,0.0003642,69.9999,89.97,266.0156,92.5601,-0.0095215,-0.01111171,0.0,0 STARLINK-3100,1 49144U 21082Q   21270.25002315 -.01111171  00000-0 -95215-2 0  9994,2 49144  69.9999  89.9700 0003642 266.0156  92.5601 15.71867058  2169,6731.698,91.611,356.015,351.111,0.0
49144.0,STARLINK-3100,PAYLOAD,2021-09-27 14:00:01,15.71064777,0.0003671,70.0002,89.0307,279.3303,164.3543,-0.009887,-0.01114852,0.0,0 STARLINK-3100,1 49144U 21082Q   21270.58334491 -.01114852  00000-0 -98870-2 0  9992,2 49144  70.0002  89.0307 0003671 279.3303 164.3543 15.71064777  2445,6733.99,91.658,358.327,353.3830000000001,0.0
49144.0,STARLINK-3100,PAYLOAD,2021-09-27 22:00:01,15.70028442,0.0003563,70.0001,88.0924,279.4533,248.5459,-0.0035153,-0.00404947,0.0,0 STARLINK-3100,1 49144U 21082Q   21270.91668981 -.00404947  00000-0 -35153-2 0  9994,2 49144  70.0001  88.0924 0003563 279.4533 248.5459 15.70028442  2500,6736.953,91.718,361.218,356.417,0.0
49144.0,STARLINK-3100,PAYLOAD,2021-09-28 06:00:02,15.69749512,0.0003403,70.0002,87.1552,264.5006,346.7764,-4.2563e-05,-5.290000000000001e-05,0.0,0 STARLINK-3100,1 49144U 21082Q   21271.25002315 -.00005290  00000-0 -42563-4 0  9998,2 49144  70.0002  87.1552 0003403 264.5006 346.7764 15.69749512  2327,6737.751,91.734,361.909,357.3230000000001,0.0
49144.0,STARLINK-3100,PAYLOAD,2021-09-28 14:00:01,15.69750213,0.0003469,70.0003,86.2185,263.9111,70.4261,-4.6504e-05,-5.76e-05,0.0,0 STARLINK-3100,1 49144U 21082Q   21271.58334491 -.00005760  00000-0 -46504-4 0  9998,2 49144  70.0003  86.2185 0003469 263.9111  70.4261 15.69750213  2606,6737.749,91.734,361.951,357.276,0.0
49144.0,STARLINK-3100,PAYLOAD,2021-09-28 22:00:00,15.69757437,0.0003283,70.003,85.2899,277.9348,139.7566,0.00065815,0.00079125,0.0,0 STARLINK-3100,1 49144U 21082Q   21271.91667824  .00079125  00000-0  65815-3 0  9993,2 49144  70.0030  85.2899 0003283 277.9348 139.7566 15.69757437  2420,6737.728,91.734,361.805,357.381,0.0
49144.0,STARLINK-3100,PAYLOAD,2021-09-29 06:00:00,15.69801252,0.0003421,70.0029,84.3532,272.8687,227.9993,-0.00041754,-0.00049869,0.0,0 STARLINK-3100,1 49144U 21082Q   21272.25001157 -.00049869  00000-0 -41754-3 0  9992,2 49144  70.0029  84.3532 0003421 272.8687 227.9993 15.69801252  2470,6737.603,91.731,361.773,357.163,0.0
